[
    {
        "model": "accounts.languages",
        "fields": {
            "isoCode": "ab",
            "englishName": "Abkhaz",
            "nativeName": "аҧсуа"
        }
    },
    {
        "model": "accounts.languages",
        "fields": {
            "isoCode": "aa",
            "englishName": "Afar",
            "nativeName": "Afaraf"
        }
    },
    {
        "model": "accounts.languages",
        "fields": {
            "isoCode": "af",
            "englishName": "Afrikaans",
            "nativeName": "Afrikaans"
        }
    },
    {
        "model": "accounts.languages",
        "fields": {
            "isoCode": "ak",
            "englishName": "Akan",
            "nativeName": "Akan"
        }
    },
    {
        "model": "accounts.languages",
        "fields": {
            "isoCode": "sq",
            "englishName": "Albanian",
            "nativeName": "Shqip"
        }
    },
    {
        "model": "accounts.languages",
        "fields": {
            "isoCode": "am",
            "englishName": "Amharic",
            "nativeName": "አማርኛ"
        }
    },
    {
        "model": "accounts.languages",
        "fields": {
            "isoCode": "ar",
            "englishName": "Arabic",
            "nativeName": "العربية"
        }
    },
    {
        "model": "accounts.languages",
        "fields": {
            "isoCode": "an",
            "englishName": "Aragonese",
            "nativeName": "Aragonés"
        }
    },
    {
        "model": "accounts.languages",
        "fields": {
            "isoCode": "hy",
            "englishName": "Armenian",
            "nativeName": "Հայերեն"
        }
    },
    {
        "model": "accounts.languages",
        "fields": {
            "isoCode": "as",
            "englishName": "Assamese",
            "nativeName": "অসমীয়া"
        }
    },
    {
        "model": "accounts.languages",
        "fields": {
            "isoCode": "av",
            "englishName": "Avaric",
            "nativeName": "авар мацӀ, магӀарул мацӀ"
        }
    },
    {
        "model": "accounts.languages",
        "fields": {
            "isoCode": "ae",
            "englishName": "Avestan",
            "nativeName": "avesta"
        }
    },
    {
        "model": "accounts.languages",
        "fields": {
            "isoCode": "ay",
            "englishName": "Aymara",
            "nativeName": "aymar aru"
        }
    },
    {
        "model": "accounts.languages",
        "fields": {
            "isoCode": "az",
            "englishName": "Azerbaijani",
            "nativeName": "azərbaycan dili"
        }
    },
    {
        "model": "accounts.languages",
        "fields": {
            "isoCode": "bm",
            "englishName": "Bambara",
            "nativeName": "bamanankan"
        }
    },
    {
        "model": "accounts.languages",
        "fields": {
            "isoCode": "ba",
            "englishName": "Bashkir",
            "nativeName": "башҡорт теле"
        }
    },
    {
        "model": "accounts.languages",
        "fields": {
            "isoCode": "eu",
            "englishName": "Basque",
            "nativeName": "euskara, euskera"
        }
    },
    {
        "model": "accounts.languages",
        "fields": {
            "isoCode": "be",
            "englishName": "Belarusian",
            "nativeName": "Беларуская"
        }
    },
    {
        "model": "accounts.languages",
        "fields": {
            "isoCode": "bn",
            "englishName": "Bengali",
            "nativeName": "বাংলা"
        }
    },
    {
        "model": "accounts.languages",
        "fields": {
            "isoCode": "bh",
            "englishName": "Bihari",
            "nativeName": "भोजपुरी"
        }
    },
    {
        "model": "accounts.languages",
        "fields": {
            "isoCode": "bi",
            "englishName": "Bislama",
            "nativeName": "Bislama"
        }
    },
    {
        "model": "accounts.languages",
        "fields": {
            "isoCode": "bs",
            "englishName": "Bosnian",
            "nativeName": "bosanski jezik"
        }
    },
    {
        "model": "accounts.languages",
        "fields": {
            "isoCode": "br",
            "englishName": "Breton",
            "nativeName": "brezhoneg"
        }
    },
    {
        "model": "accounts.languages",
        "fields": {
            "isoCode": "bg",
            "englishName": "Bulgarian",
            "nativeName": "български език"
        }
    },
    {
        "model": "accounts.languages",
        "fields": {
            "isoCode": "my",
            "englishName": "Burmese",
            "nativeName": "ဗမာစာ"
        }
    },
    {
        "model": "accounts.languages",
        "fields": {
            "isoCode": "ca",
            "englishName": "Catalan; Valencian",
            "nativeName": "Català"
        }
    },
    {
        "model": "accounts.languages",
        "fields": {
            "isoCode": "ch",
            "englishName": "Chamorro",
            "nativeName": "Chamoru"
        }
    },
    {
        "model": "accounts.languages",
        "fields": {
            "isoCode": "ce",
            "englishName": "Chechen",
            "nativeName": "нохчийн мотт"
        }
    },
    {
        "model": "accounts.languages",
        "fields": {
            "isoCode": "ny",
            "englishName": "Chichewa; Chewa; Nyanja",
            "nativeName": "chiCheŵa, chinyanja"
        }
    },
    {
        "model": "accounts.languages",
        "fields": {
            "isoCode": "zh",
            "englishName": "Chinese",
            "nativeName": "中文 (Zhōngwén), 汉语, 漢語"
        }
    },
    {
        "model": "accounts.languages",
        "fields": {
            "isoCode": "cv",
            "englishName": "Chuvash",
            "nativeName": "чӑваш чӗлхи"
        }
    },
    {
        "model": "accounts.languages",
        "fields": {
            "isoCode": "kw",
            "englishName": "Cornish",
            "nativeName": "Kernewek"
        }
    },
    {
        "model": "accounts.languages",
        "fields": {
            "isoCode": "co",
            "englishName": "Corsican",
            "nativeName": "corsu, lingua corsa"
        }
    },
    {
        "model": "accounts.languages",
        "fields": {
            "isoCode": "cr",
            "englishName": "Cree",
            "nativeName": "ᓀᐦᐃᔭᐍᐏᐣ"
        }
    },
    {
        "model": "accounts.languages",
        "fields": {
            "isoCode": "hr",
            "englishName": "Croatian",
            "nativeName": "hrvatski"
        }
    },
    {
        "model": "accounts.languages",
        "fields": {
            "isoCode": "cs",
            "englishName": "Czech",
            "nativeName": "česky, čeština"
        }
    },
    {
        "model": "accounts.languages",
        "fields": {
            "isoCode": "da",
            "englishName": "Danish",
            "nativeName": "dansk"
        }
    },
    {
        "model": "accounts.languages",
        "fields": {
            "isoCode": "dv",
            "englishName": "Divehi; Dhivehi; Maldivian;",
            "nativeName": "ދިވެހި"
        }
    },
    {
        "model": "accounts.languages",
        "fields": {
            "isoCode": "nl",
            "englishName": "Dutch",
            "nativeName": "Nederlands, Vlaams"
        }
    },
    {
        "model": "accounts.languages",
        "fields": {
            "isoCode": "en",
            "englishName": "English",
            "nativeName": "English"
        }
    },
    {
        "model": "accounts.languages",
        "fields": {
            "isoCode": "eo",
            "englishName": "Esperanto",
            "nativeName": "Esperanto"
        }
    },
    {
        "model": "accounts.languages",
        "fields": {
            "isoCode": "et",
            "englishName": "Estonian",
            "nativeName": "eesti, eesti keel"
        }
    },
    {
        "model": "accounts.languages",
        "fields": {
            "isoCode": "ee",
            "englishName": "Ewe",
            "nativeName": "Eʋegbe"
        }
    },
    {
        "model": "accounts.languages",
        "fields": {
            "isoCode": "fo",
            "englishName": "Faroese",
            "nativeName": "føroyskt"
        }
    },
    {
        "model": "accounts.languages",
        "fields": {
            "isoCode": "fj",
            "englishName": "Fijian",
            "nativeName": "vosa Vakaviti"
        }
    },
    {
        "model": "accounts.languages",
        "fields": {
            "isoCode": "fi",
            "englishName": "Finnish",
            "nativeName": "suomi, suomen kieli"
        }
    },
    {
        "model": "accounts.languages",
        "fields": {
            "isoCode": "fr",
            "englishName": "French",
            "nativeName": "français, langue française"
        }
    },
    {
        "model": "accounts.languages",
        "fields": {
            "isoCode": "ff",
            "englishName": "Fula; Fulah; Pulaar; Pular",
            "nativeName": "Fulfulde, Pulaar, Pular"
        }
    },
    {
        "model": "accounts.languages",
        "fields": {
            "isoCode": "gl",
            "englishName": "Galician",
            "nativeName": "Galego"
        }
    },
    {
        "model": "accounts.languages",
        "fields": {
            "isoCode": "ka",
            "englishName": "Georgian",
            "nativeName": "ქართული"
        }
    },
    {
        "model": "accounts.languages",
        "fields": {
            "isoCode": "de",
            "englishName": "German",
            "nativeName": "Deutsch"
        }
    },
    {
        "model": "accounts.languages",
        "fields": {
            "isoCode": "el",
            "englishName": "Greek, Modern",
            "nativeName": "Ελληνικά"
        }
    },
    {
        "model": "accounts.languages",
        "fields": {
            "isoCode": "gn",
            "englishName": "Guaraní",
            "nativeName": "Avañeẽ"
        }
    },
    {
        "model": "accounts.languages",
        "fields": {
            "isoCode": "gu",
            "englishName": "Gujarati",
            "nativeName": "ગુજરાતી"
        }
    },
    {
        "model": "accounts.languages",
        "fields": {
            "isoCode": "ht",
            "englishName": "Haitian; Haitian Creole",
            "nativeName": "Kreyòl ayisyen"
        }
    },
    {
        "model": "accounts.languages",
        "fields": {
            "isoCode": "ha",
            "englishName": "Hausa",
            "nativeName": "Hausa, هَوُسَ"
        }
    },
    {
        "model": "accounts.languages",
        "fields": {
            "isoCode": "he",
            "englishName": "Hebrew (modern)",
            "nativeName": "עברית"
        }
    },
    {
        "model": "accounts.languages",
        "fields": {
            "isoCode": "hz",
            "englishName": "Herero",
            "nativeName": "Otjiherero"
        }
    },
    {
        "model": "accounts.languages",
        "fields": {
            "isoCode": "hi",
            "englishName": "Hindi",
            "nativeName": "हिन्दी, हिंदी"
        }
    },
    {
        "model": "accounts.languages",
        "fields": {
            "isoCode": "ho",
            "englishName": "Hiri Motu",
            "nativeName": "Hiri Motu"
        }
    },
    {
        "model": "accounts.languages",
        "fields": {
            "isoCode": "hu",
            "englishName": "Hungarian",
            "nativeName": "Magyar"
        }
    },
    {
        "model": "accounts.languages",
        "fields": {
            "isoCode": "ia",
            "englishName": "Interlingua",
            "nativeName": "Interlingua"
        }
    },
    {
        "model": "accounts.languages",
        "fields": {
            "isoCode": "id",
            "englishName": "Indonesian",
            "nativeName": "Bahasa Indonesia"
        }
    },
    {
        "model": "accounts.languages",
        "fields": {
            "isoCode": "ie",
            "englishName": "Interlingue",
            "nativeName": "Originally called Occidental; then Interlingue after WWII"
        }
    },
    {
        "model": "accounts.languages",
        "fields": {
            "isoCode": "ga",
            "englishName": "Irish",
            "nativeName": "Gaeilge"
        }
    },
    {
        "model": "accounts.languages",
        "fields": {
            "isoCode": "ig",
            "englishName": "Igbo",
            "nativeName": "Asụsụ Igbo"
        }
    },
    {
        "model": "accounts.languages",
        "fields": {
            "isoCode": "ik",
            "englishName": "Inupiaq",
            "nativeName": "Iñupiaq, Iñupiatun"
        }
    },
    {
        "model": "accounts.languages",
        "fields": {
            "isoCode": "io",
            "englishName": "Ido",
            "nativeName": "Ido"
        }
    },
    {
        "model": "accounts.languages",
        "fields": {
            "isoCode": "is",
            "englishName": "Icelandic",
            "nativeName": "Íslenska"
        }
    },
    {
        "model": "accounts.languages",
        "fields": {
            "isoCode": "it",
            "englishName": "Italian",
            "nativeName": "Italiano"
        }
    },
    {
        "model": "accounts.languages",
        "fields": {
            "isoCode": "iu",
            "englishName": "Inuktitut",
            "nativeName": "ᐃᓄᒃᑎᑐᑦ"
        }
    },
    {
        "model": "accounts.languages",
        "fields": {
            "isoCode": "ja",
            "englishName": "Japanese",
            "nativeName": "日本語 (にほんご／にっぽんご)"
        }
    },
    {
        "model": "accounts.languages",
        "fields": {
            "isoCode": "jv",
            "englishName": "Javanese",
            "nativeName": "basa Jawa"
        }
    },
    {
        "model": "accounts.languages",
        "fields": {
            "isoCode": "kl",
            "englishName": "Kalaallisut, Greenlandic",
            "nativeName": "kalaallisut, kalaallit oqaasii"
        }
    },
    {
        "model": "accounts.languages",
        "fields": {
            "isoCode": "kn",
            "englishName": "Kannada",
            "nativeName": "ಕನ್ನಡ"
        }
    },
    {
        "model": "accounts.languages",
        "fields": {
            "isoCode": "kr",
            "englishName": "Kanuri",
            "nativeName": "Kanuri"
        }
    },
    {
        "model": "accounts.languages",
        "fields": {
            "isoCode": "ks",
            "englishName": "Kashmiri",
            "nativeName": "कश्मीरी, كشميري‎"
        }
    },
    {
        "model": "accounts.languages",
        "fields": {
            "isoCode": "kk",
            "englishName": "Kazakh",
            "nativeName": "Қазақ тілі"
        }
    },
    {
        "model": "accounts.languages",
        "fields": {
            "isoCode": "km",
            "englishName": "Khmer",
            "nativeName": "ភាសាខ្មែរ"
        }
    },
    {
        "model": "accounts.languages",
        "fields": {
            "isoCode": "ki",
            "englishName": "Kikuyu, Gikuyu",
            "nativeName": "Gĩkũyũ"
        }
    },
    {
        "model": "accounts.languages",
        "fields": {
            "isoCode": "rw",
            "englishName": "Kinyarwanda",
            "nativeName": "Ikinyarwanda"
        }
    },
    {
        "model": "accounts.languages",
        "fields": {
            "isoCode": "ky",
            "englishName": "Kirghiz, Kyrgyz",
            "nativeName": "кыргыз тили"
        }
    },
    {
        "model": "accounts.languages",
        "fields": {
            "isoCode": "kv",
            "englishName": "Komi",
            "nativeName": "коми кыв"
        }
    },
    {
        "model": "accounts.languages",
        "fields": {
            "isoCode": "kg",
            "englishName": "Kongo",
            "nativeName": "KiKongo"
        }
    },
    {
        "model": "accounts.languages",
        "fields": {
            "isoCode": "ko",
            "englishName": "Korean",
            "nativeName": "한국어 (韓國語), 조선말 (朝鮮語)"
        }
    },
    {
        "model": "accounts.languages",
        "fields": {
            "isoCode": "ku",
            "englishName": "Kurdish",
            "nativeName": "Kurdî, كوردی‎"
        }
    },
    {
        "model": "accounts.languages",
        "fields": {
            "isoCode": "kj",
            "englishName": "Kwanyama, Kuanyama",
            "nativeName": "Kuanyama"
        }
    },
    {
        "model": "accounts.languages",
        "fields": {
            "isoCode": "la",
            "englishName": "Latin",
            "nativeName": "latine, lingua latina"
        }
    },
    {
        "model": "accounts.languages",
        "fields": {
            "isoCode": "lb",
            "englishName": "Luxembourgish, Letzeburgesch",
            "nativeName": "Lëtzebuergesch"
        }
    },
    {
        "model": "accounts.languages",
        "fields": {
            "isoCode": "lg",
            "englishName": "Luganda",
            "nativeName": "Luganda"
        }
    },
    {
        "model": "accounts.languages",
        "fields": {
            "isoCode": "li",
            "englishName": "Limburgish, Limburgan, Limburger",
            "nativeName": "Limburgs"
        }
    },
    {
        "model": "accounts.languages",
        "fields": {
            "isoCode": "ln",
            "englishName": "Lingala",
            "nativeName": "Lingála"
        }
    },
    {
        "model": "accounts.languages",
        "fields": {
            "isoCode": "lo",
            "englishName": "Lao",
            "nativeName": "ພາສາລາວ"
        }
    },
    {
        "model": "accounts.languages",
        "fields": {
            "isoCode": "lt",
            "englishName": "Lithuanian",
            "nativeName": "lietuvių kalba"
        }
    },
    {
        "model": "accounts.languages",
        "fields": {
            "isoCode": "lu",
            "englishName": "Luba-Katanga",
            "nativeName": ""
        }
    },
    {
        "model": "accounts.languages",
        "fields": {
            "isoCode": "lv",
            "englishName": "Latvian",
            "nativeName": "latviešu valoda"
        }
    },
    {
        "model": "accounts.languages",
        "fields": {
            "isoCode": "gv",
            "englishName": "Manx",
            "nativeName": "Gaelg, Gailck"
        }
    },
    {
        "model": "accounts.languages",
        "fields": {
            "isoCode": "mk",
            "englishName": "Macedonian",
            "nativeName": "македонски јазик"
        }
    },
    {
        "model": "accounts.languages",
        "fields": {
            "isoCode": "mg",
            "englishName": "Malagasy",
            "nativeName": "Malagasy fiteny"
        }
    },
    {
        "model": "accounts.languages",
        "fields": {
            "isoCode": "ms",
            "englishName": "Malay",
            "nativeName": "bahasa Melayu, بهاس ملايو‎"
        }
    },
    {
        "model": "accounts.languages",
        "fields": {
            "isoCode": "ml",
            "englishName": "Malayalam",
            "nativeName": "മലയാളം"
        }
    },
    {
        "model": "accounts.languages",
        "fields": {
            "isoCode": "mt",
            "englishName": "Maltese",
            "nativeName": "Malti"
        }
    },
    {
        "model": "accounts.languages",
        "fields": {
            "isoCode": "mi",
            "englishName": "Māori",
            "nativeName": "te reo Māori"
        }
    },
    {
        "model": "accounts.languages",
        "fields": {
            "isoCode": "mr",
            "englishName": "Marathi (Marāṭhī)",
            "nativeName": "मराठी"
        }
    },
    {
        "model": "accounts.languages",
        "fields": {
            "isoCode": "mh",
            "englishName": "Marshallese",
            "nativeName": "Kajin M̧ajeļ"
        }
    },
    {
        "model": "accounts.languages",
        "fields": {
            "isoCode": "mn",
            "englishName": "Mongolian",
            "nativeName": "монгол"
        }
    },
    {
        "model": "accounts.languages",
        "fields": {
            "isoCode": "na",
            "englishName": "Nauru",
            "nativeName": "Ekakairũ Naoero"
        }
    },
    {
        "model": "accounts.languages",
        "fields": {
            "isoCode": "nv",
            "englishName": "Navajo, Navaho",
            "nativeName": "Diné bizaad, Dinékʼehǰí"
        }
    },
    {
        "model": "accounts.languages",
        "fields": {
            "isoCode": "nb",
            "englishName": "Norwegian Bokmål",
            "nativeName": "Norsk bokmål"
        }
    },
    {
        "model": "accounts.languages",
        "fields": {
            "isoCode": "nd",
            "englishName": "North Ndebele",
            "nativeName": "isiNdebele"
        }
    },
    {
        "model": "accounts.languages",
        "fields": {
            "isoCode": "ne",
            "englishName": "Nepali",
            "nativeName": "नेपाली"
        }
    },
    {
        "model": "accounts.languages",
        "fields": {
            "isoCode": "ng",
            "englishName": "Ndonga",
            "nativeName": "Owambo"
        }
    },
    {
        "model": "accounts.languages",
        "fields": {
            "isoCode": "nn",
            "englishName": "Norwegian Nynorsk",
            "nativeName": "Norsk nynorsk"
        }
    },
    {
        "model": "accounts.languages",
        "fields": {
            "isoCode": "no",
            "englishName": "Norwegian",
            "nativeName": "Norsk"
        }
    },
    {
        "model": "accounts.languages",
        "fields": {
            "isoCode": "ii",
            "englishName": "Nuosu",
            "nativeName": "ꆈꌠ꒿ Nuosuhxop"
        }
    },
    {
        "model": "accounts.languages",
        "fields": {
            "isoCode": "nr",
            "englishName": "South Ndebele",
            "nativeName": "isiNdebele"
        }
    },
    {
        "model": "accounts.languages",
        "fields": {
            "isoCode": "oc",
            "englishName": "Occitan",
            "nativeName": "Occitan"
        }
    },
    {
        "model": "accounts.languages",
        "fields": {
            "isoCode": "oj",
            "englishName": "Ojibwe, Ojibwa",
            "nativeName": "ᐊᓂᔑᓈᐯᒧᐎᓐ"
        }
    },
    {
        "model": "accounts.languages",
        "fields": {
            "isoCode": "cu",
            "englishName": "Old Church Slavonic, Church Slavic, Church Slavonic, Old Bulgarian, Old Slavonic",
            "nativeName": "ѩзыкъ словѣньскъ"
        }
    },
    {
        "model": "accounts.languages",
        "fields": {
            "isoCode": "om",
            "englishName": "Oromo",
            "nativeName": "Afaan Oromoo"
        }
    },
    {
        "model": "accounts.languages",
        "fields": {
            "isoCode": "or",
            "englishName": "Oriya",
            "nativeName": "ଓଡ଼ିଆ"
        }
    },
    {
        "model": "accounts.languages",
        "fields": {
            "isoCode": "os",
            "englishName": "Ossetian, Ossetic",
            "nativeName": "ирон æвзаг"
        }
    },
    {
        "model": "accounts.languages",
        "fields": {
            "isoCode": "pa",
            "englishName": "Panjabi, Punjabi",
            "nativeName": "ਪੰਜਾਬੀ, پنجابی‎"
        }
    },
    {
        "model": "accounts.languages",
        "fields": {
            "isoCode": "pi",
            "englishName": "Pāli",
            "nativeName": "पाऴि"
        }
    },
    {
        "model": "accounts.languages",
        "fields": {
            "isoCode": "fa",
            "englishName": "Persian",
            "nativeName": "فارسی"
        }
    },
    {
        "model": "accounts.languages",
        "fields": {
            "isoCode": "pl",
            "englishName": "Polish",
            "nativeName": "polski"
        }
    },
    {
        "model": "accounts.languages",
        "fields": {
            "isoCode": "ps",
            "englishName": "Pashto, Pushto",
            "nativeName": "پښتو"
        }
    },
    {
        "model": "accounts.languages",
        "fields": {
            "isoCode": "pt",
            "englishName": "Portuguese",
            "nativeName": "Português"
        }
    },
    {
        "model": "accounts.languages",
        "fields": {
            "isoCode": "qu",
            "englishName": "Quechua",
            "nativeName": "Runa Simi, Kichwa"
        }
    },
    {
        "model": "accounts.languages",
        "fields": {
            "isoCode": "rm",
            "englishName": "Romansh",
            "nativeName": "rumantsch grischun"
        }
    },
    {
        "model": "accounts.languages",
        "fields": {
            "isoCode": "rn",
            "englishName": "Kirundi",
            "nativeName": "kiRundi"
        }
    },
    {
        "model": "accounts.languages",
        "fields": {
            "isoCode": "ro",
            "englishName": "Romanian, Moldavian, Moldovan",
            "nativeName": "română"
        }
    },
    {
        "model": "accounts.languages",
        "fields": {
            "isoCode": "ru",
            "englishName": "Russian",
            "nativeName": "русский язык"
        }
    },
    {
        "model": "accounts.languages",
        "fields": {
            "isoCode": "sa",
            "englishName": "Sanskrit (Saṁskṛta)",
            "nativeName": "संस्कृतम्"
        }
    },
    {
        "model": "accounts.languages",
        "fields": {
            "isoCode": "sc",
            "englishName": "Sardinian",
            "nativeName": "sardu"
        }
    },
    {
        "model": "accounts.languages",
        "fields": {
            "isoCode": "sd",
            "englishName": "Sindhi",
            "nativeName": "सिन्धी, سنڌي، سندھی‎"
        }
    },
    {
        "model": "accounts.languages",
        "fields": {
            "isoCode": "se",
            "englishName": "Northern Sami",
            "nativeName": "Davvisámegiella"
        }
    },
    {
        "model": "accounts.languages",
        "fields": {
            "isoCode": "sm",
            "englishName": "Samoan",
            "nativeName": "gagana faa Samoa"
        }
    },
    {
        "model": "accounts.languages",
        "fields": {
            "isoCode": "sg",
            "englishName": "Sango",
            "nativeName": "yângâ tî sängö"
        }
    },
    {
        "model": "accounts.languages",
        "fields": {
            "isoCode": "sr",
            "englishName": "Serbian",
            "nativeName": "српски језик"
        }
    },
    {
        "model": "accounts.languages",
        "fields": {
            "isoCode": "gd",
            "englishName": "Scottish Gaelic; Gaelic",
            "nativeName": "Gàidhlig"
        }
    },
    {
        "model": "accounts.languages",
        "fields": {
            "isoCode": "sn",
            "englishName": "Shona",
            "nativeName": "chiShona"
        }
    },
    {
        "model": "accounts.languages",
        "fields": {
            "isoCode": "si",
            "englishName": "Sinhala, Sinhalese",
            "nativeName": "සිංහල"
        }
    },
    {
        "model": "accounts.languages",
        "fields": {
            "isoCode": "sk",
            "englishName": "Slovak",
            "nativeName": "slovenčina"
        }
    },
    {
        "model": "accounts.languages",
        "fields": {
            "isoCode": "sl",
            "englishName": "Slovene",
            "nativeName": "slovenščina"
        }
    },
    {
        "model": "accounts.languages",
        "fields": {
            "isoCode": "so",
            "englishName": "Somali",
            "nativeName": "Soomaaliga, af Soomaali"
        }
    },
    {
        "model": "accounts.languages",
        "fields": {
            "isoCode": "st",
            "englishName": "Southern Sotho",
            "nativeName": "Sesotho"
        }
    },
    {
        "model": "accounts.languages",
        "fields": {
            "isoCode": "es",
            "englishName": "Spanish; Castilian",
            "nativeName": "español, castellano"
        }
    },
    {
        "model": "accounts.languages",
        "fields": {
            "isoCode": "su",
            "englishName": "Sundanese",
            "nativeName": "Basa Sunda"
        }
    },
    {
        "model": "accounts.languages",
        "fields": {
            "isoCode": "sw",
            "englishName": "Swahili",
            "nativeName": "Kiswahili"
        }
    },
    {
        "model": "accounts.languages",
        "fields": {
            "isoCode": "ss",
            "englishName": "Swati",
            "nativeName": "SiSwati"
        }
    },
    {
        "model": "accounts.languages",
        "fields": {
            "isoCode": "sv",
            "englishName": "Swedish",
            "nativeName": "svenska"
        }
    },
    {
        "model": "accounts.languages",
        "fields": {
            "isoCode": "ta",
            "englishName": "Tamil",
            "nativeName": "தமிழ்"
        }
    },
    {
        "model": "accounts.languages",
        "fields": {
            "isoCode": "te",
            "englishName": "Telugu",
            "nativeName": "తెలుగు"
        }
    },
    {
        "model": "accounts.languages",
        "fields": {
            "isoCode": "tg",
            "englishName": "Tajik",
            "nativeName": "тоҷикӣ, toğikī, تاجیکی‎"
        }
    },
    {
        "model": "accounts.languages",
        "fields": {
            "isoCode": "th",
            "englishName": "Thai",
            "nativeName": "ไทย"
        }
    },
    {
        "model": "accounts.languages",
        "fields": {
            "isoCode": "ti",
            "englishName": "Tigrinya",
            "nativeName": "ትግርኛ"
        }
    },
    {
        "model": "accounts.languages",
        "fields": {
            "isoCode": "bo",
            "englishName": "Tibetan Standard, Tibetan, Central",
            "nativeName": "བོད་ཡིག"
        }
    },
    {
        "model": "accounts.languages",
        "fields": {
            "isoCode": "tk",
            "englishName": "Turkmen",
            "nativeName": "Türkmen, Түркмен"
        }
    },
    {
        "model": "accounts.languages",
        "fields": {
            "isoCode": "tl",
            "englishName": "Tagalog",
            "nativeName": "Wikang Tagalog, ᜏᜒᜃᜅ᜔ ᜆᜄᜎᜓᜄ᜔"
        }
    },
    {
        "model": "accounts.languages",
        "fields": {
            "isoCode": "tn",
            "englishName": "Tswana",
            "nativeName": "Setswana"
        }
    },
    {
        "model": "accounts.languages",
        "fields": {
            "isoCode": "to",
            "englishName": "Tonga (Tonga Islands)",
            "nativeName": "faka Tonga"
        }
    },
    {
        "model": "accounts.languages",
        "fields": {
            "isoCode": "tr",
            "englishName": "Turkish",
            "nativeName": "Türkçe"
        }
    },
    {
        "model": "accounts.languages",
        "fields": {
            "isoCode": "ts",
            "englishName": "Tsonga",
            "nativeName": "Xitsonga"
        }
    },
    {
        "model": "accounts.languages",
        "fields": {
            "isoCode": "tt",
            "englishName": "Tatar",
            "nativeName": "татарча, tatarça, تاتارچا‎"
        }
    },
    {
        "model": "accounts.languages",
        "fields": {
            "isoCode": "tw",
            "englishName": "Twi",
            "nativeName": "Twi"
        }
    },
    {
        "model": "accounts.languages",
        "fields": {
            "isoCode": "ty",
            "englishName": "Tahitian",
            "nativeName": "Reo Tahiti"
        }
    },
    {
        "model": "accounts.languages",
        "fields": {
            "isoCode": "ug",
            "englishName": "Uighur, Uyghur",
            "nativeName": "Uyƣurqə, ئۇيغۇرچە‎"
        }
    },
    {
        "model": "accounts.languages",
        "fields": {
            "isoCode": "uk",
            "englishName": "Ukrainian",
            "nativeName": "українська"
        }
    },
    {
        "model": "accounts.languages",
        "fields": {
            "isoCode": "ur",
            "englishName": "Urdu",
            "nativeName": "اردو"
        }
    },
    {
        "model": "accounts.languages",
        "fields": {
            "isoCode": "uz",
            "englishName": "Uzbek",
            "nativeName": "zbek, Ўзбек, أۇزبېك‎"
        }
    },
    {
        "model": "accounts.languages",
        "fields": {
            "isoCode": "ve",
            "englishName": "Venda",
            "nativeName": "Tshivenḓa"
        }
    },
    {
        "model": "accounts.languages",
        "fields": {
            "isoCode": "vi",
            "englishName": "Vietnamese",
            "nativeName": "Tiếng Việt"
        }
    },
    {
        "model": "accounts.languages",
        "fields": {
            "isoCode": "vo",
            "englishName": "Volapük",
            "nativeName": "Volapük"
        }
    },
    {
        "model": "accounts.languages",
        "fields": {
            "isoCode": "wa",
            "englishName": "Walloon",
            "nativeName": "Walon"
        }
    },
    {
        "model": "accounts.languages",
        "fields": {
            "isoCode": "cy",
            "englishName": "Welsh",
            "nativeName": "Cymraeg"
        }
    },
    {
        "model": "accounts.languages",
        "fields": {
            "isoCode": "wo",
            "englishName": "Wolof",
            "nativeName": "Wollof"
        }
    },
    {
        "model": "accounts.languages",
        "fields": {
            "isoCode": "fy",
            "englishName": "Western Frisian",
            "nativeName": "Frysk"
        }
    },
    {
        "model": "accounts.languages",
        "fields": {
            "isoCode": "xh",
            "englishName": "Xhosa",
            "nativeName": "isiXhosa"
        }
    },
    {
        "model": "accounts.languages",
        "fields": {
            "isoCode": "yi",
            "englishName": "Yiddish",
            "nativeName": "ייִדיש"
        }
    },
    {
        "model": "accounts.languages",
        "fields": {
            "isoCode": "yo",
            "englishName": "Yoruba",
            "nativeName": "Yorùbá"
        }
    },
    {
        "model": "accounts.languages",
        "fields": {
            "isoCode": "za",
            "englishName": "Zhuang, Chuang",
            "nativeName": "Saɯ cueŋƅ, Saw cuengh"
        }
    }
]